FENGYUN 1C DEB          
1 36664U 99025DYJ 17345.24546912  .00000013  00000-0  25356-4 0  9992
2 36664  98.9375   3.7524 0174806 190.5043 169.2461 14.16826263223440
